{"type": "FeatureCollection", "features": [ {"type": "Feature", "properties": {"norad_id": 40315, "name": "COSMOS 2501 (702K)", "group": "gnss", "lat": -8.407847215050335, "lon": 21.342273815524234, "alt_km": 19081.894965650004, "timestamp": "2025-12-03T20:47:58.464934+00:00", "meta": {"OBJECT_NAME": "COSMOS 2501 (702K)", "OBJECT_ID": "2014-075A", "EPOCH": "2025-11-30T19:17:52.497312", "MEAN_MOTION": 2.13101305, "ECCENTRICITY": 0.00201676, "INCLINATION": 63.6137, "RA_OF_ASC_NODE": 197.2386, "ARG_OF_PERICENTER": 204.7979, "MEAN_ANOMALY": 155.1955, "EPHEMERIS_TYPE": 0, "CLASSIFICATION_TYPE": "U", "NORAD_CAT_ID": 40315, "ELEMENT_SET_NO": 999, "REV_AT_EPOCH": 8562, "BSTAR": 0, "MEAN_MOTION_DOT": 1e-06, "MEAN_MOTION_DDOT": 0}, "tle": {"line1": "1 40315U 14075A   25334.80407983  .00000100  00000+0  00000+0 0  9995", "line2": "2 40315  63.6137 197.2386 0020167 204.7979 155.1955  2.13101305 85629"}}, "geometry": {"type": "Point", "coordinates": [21.342273815524234, -8.407847215050335]}}, {"type": "Feature", "properties": {"norad_id": 40534, "name": "GPS BIIF-9  (PRN 26)", "group": "gnss", "lat": -2.6504100114412963, "lon": 34.251747174128546, "alt_km": 20414.1375818933, "timestamp": "2025-12-03T20:47:58.464945+00:00", "meta": {"OBJECT_NAME": "GPS BIIF-9  (PRN 26)", "OBJECT_ID": "2015-013A", "EPOCH": "2025-12-02T02:51:32.874336", "MEAN_MOTION": 2.00563085, "ECCENTRICITY": 0.01065801, "INCLINATION": 53.1996, "RA_OF_ASC_NODE": 212.3303, "ARG_OF_PERICENTER": 38.2186, "MEAN_ANOMALY": 322.6251, "EPHEMERIS_TYPE": 0, "CLASSIFICATION_TYPE": "U", "NORAD_CAT_ID": 40534, "ELEMENT_SET_NO": 999, "REV_AT_EPOCH": 7787, "BSTAR": 0, "MEAN_MOTION_DOT": 7.3e-07, "MEAN_MOTION_DDOT": 0}, "tle": {"line1": "1 40534U 15013A   25336.11913049  .00000073  00000+0  00000+0 0  9991", "line2": "2 40534  53.1996 212.3303 0106580  38.2186 322.6251  2.00563085 77872"}}, "geometry": {"type": "Point", "coordinates": [34.251747174128546, -2.6504100114412963]}}, {"type": "Feature", "properties": {"norad_id": 40544, "name": "GSAT0203 (GALILEO 7)", "group": "gnss", "lat": -6.982949474248328, "lon": -17.664365821362452, "alt_km": 23220.860629073577, "timestamp": "2025-12-03T20:47:58.464957+00:00", "meta": {"OBJECT_NAME": "GSAT0203 (GALILEO 7)", "OBJECT_ID": "2015-017A", "EPOCH": "2025-12-02T16:58:12.961344", "MEAN_MOTION": 1.70475735, "ECCENTRICITY": 0.0006521, "INCLINATION": 56.849, "RA_OF_ASC_NODE": 346.954, "ARG_OF_PERICENTER": 268.5764, "MEAN_ANOMALY": 91.3871, "EPHEMERIS_TYPE": 0, "CLASSIFICATION_TYPE": "U", "NORAD_CAT_ID": 40544, "ELEMENT_SET_NO": 999, "REV_AT_EPOCH": 6585, "BSTAR": 0, "MEAN_MOTION_DOT": -6.5e-07, "MEAN_MOTION_DDOT": 0}, "tle": {"line1": "1 40544U 15017A   25336.70709446 -.00000065  00000+0  00000+0 0  9997", "line2": "2 40544  56.8490 346.9540 0006521 268.5764  91.3871  1.70475735 65856"}}, "geometry": {"type": "Point", "coordinates": [-17.664365821362452, -6.982949474248328]}}, {"type": "Feature", "properties": {"norad_id": 40545, "name": "GSAT0204 (GALILEO 8)", "group": "gnss", "lat": -12.333040907334, "lon": 175.1619188462804, "alt_km": 23216.121729580318, "timestamp": "2025-12-03T20:47:58.464968+00:00", "meta": {"OBJECT_NAME": "GSAT0204 (GALILEO 8)", "OBJECT_ID": "2015-017B", "EPOCH": "2025-12-01T18:56:42.196992", "MEAN_MOTION": 1.70475405, "ECCENTRICITY": 0.00062658, "INCLINATION": 56.854, "RA_OF_ASC_NODE": 346.9967, "ARG_OF_PERICENTER": 260.0885, "MEAN_ANOMALY": 99.8817, "EPHEMERIS_TYPE": 0, "CLASSIFICATION_TYPE": "U", "NORAD_CAT_ID": 40545, "ELEMENT_SET_NO": 999, "REV_AT_EPOCH": 2888, "BSTAR": 0, "MEAN_MOTION_DOT": -6.1e-07, "MEAN_MOTION_DDOT": 0}, "tle": {"line1": "1 40545U 15017B   25335.78937728 -.00000061  00000+0  00000+0 0  9997", "line2": "2 40545  56.8540 346.9967 0006265 260.0885  99.8817  1.70475405 28881"}}, "geometry": {"type": "Point", "coordinates": [175.1619188462804, -12.333040907334]}}, {"type": "Feature", "properties": {"norad_id": 40730, "name": "GPS BIIF-10 (PRN 08)", "group": "gnss", "lat": 48.11253602992859, "lon": -31.231817112561153, "alt_km": 19951.18142838882, "timestamp": "2025-12-03T20:47:58.464979+00:00", "meta": {"OBJECT_NAME": "GPS BIIF-10 (PRN 08)", "OBJECT_ID": "2015-033A", "EPOCH": "2025-12-03T06:39:47.619072", "MEAN_MOTION": 2.00565936, "ECCENTRICITY": 0.0110374, "INCLINATION": 54.139, "RA_OF_ASC_NODE": 275.1622, "ARG_OF_PERICENTER": 26.5739, "MEAN_ANOMALY": 333.9862, "EPHEMERIS_TYPE": 0, "CLASSIFICATION_TYPE": "U", "NORAD_CAT_ID": 40730, "ELEMENT_SET_NO": 999, "REV_AT_EPOCH": 7606, "BSTAR": 0, "MEAN_MOTION_DOT": -3.5e-07, "MEAN_MOTION_DDOT": 0}, "tle": {"line1": "1 40730U 15033A   25337.27763448 -.00000035  00000+0  00000+0 0  9994", "line2": "2 40730  54.1390 275.1622 0110374  26.5739 333.9862  2.00565936 76060"}}, "geometry": {"type": "Point", "coordinates": [-31.231817112561153, 48.11253602992859]}}, {"type": "Feature", "properties": {"norad_id": 40748, "name": "BEIDOU-3S M2S (C58)", "group": "gnss", "lat": -3.4834520624793357, "lon": -53.69166701879513, "alt_km": 21528.09605374341, "timestamp": "2025-12-03T20:47:58.464991+00:00", "meta": {"OBJECT_NAME": "BEIDOU-3S M2S (C58)", "OBJECT_ID": "2015-037A", "EPOCH": "2025-12-01T04:31:01.292160", "MEAN_MOTION": 1.86229002, "ECCENTRICITY": 0.0012493, "INCLINATION": 55.0491, "RA_OF_ASC_NODE": 308.8604, "ARG_OF_PERICENTER": 267.0141, "MEAN_ANOMALY": 92.8367, "EPHEMERIS_TYPE": 0, "CLASSIFICATION_TYPE": "U", "NORAD_CAT_ID": 40748, "ELEMENT_SET_NO": 999, "REV_AT_EPOCH": 7043, "BSTAR": 0, "MEAN_MOTION_DOT": -5.6e-07, "MEAN_MOTION_DDOT": 0}, "tle": {"line1": "1 40748U 15037A   25335.18820940 -.00000056  00000+0  00000+0 0  9999", "line2": "2 40748  55.0491 308.8604 0012493 267.0141  92.8367  1.86229002 70437"}}, "geometry": {"type": "Point", "coordinates": [-53.69166701879513, -3.4834520624793357]}}, {"type": "Feature", "properties": {"norad_id": 40749, "name": "BEIDOU-3S M1S (C57)", "group": "gnss", "lat": -16.80550204804102, "lon": 140.92958033221575, "alt_km": 21536.556620515672, "timestamp": "2025-12-03T20:47:58.465004+00:00", "meta": {"OBJECT_NAME": "BEIDOU-3S M1S (C57)", "OBJECT_ID": "2015-037B", "EPOCH": "2025-12-01T22:57:46.412352", "MEAN_MOTION": 1.86253762, "ECCENTRICITY": 0.0003321, "INCLINATION": 55.0451, "RA_OF_ASC_NODE": 308.8236, "ARG_OF_PERICENTER": 355.9906, "MEAN_ANOMALY": 3.9975, "EPHEMERIS_TYPE": 0, "CLASSIFICATION_TYPE": "U", "NORAD_CAT_ID": 40749, "ELEMENT_SET_NO": 999, "REV_AT_EPOCH": 7045, "BSTAR": 0, "MEAN_MOTION_DOT": -6e-07, "MEAN_MOTION_DDOT": 0}, "tle": {"line1": "1 40749U 15037B   25335.95678718 -.00000060  00000+0  00000+0 0  9994", "line2": "2 40749  55.0451 308.8236 0003321 355.9906   3.9975  1.86253762 70451"}}, "geometry": {"type": "Point", "coordinates": [140.92958033221575, -16.80550204804102]}}, {"type": "Feature", "properties": {"norad_id": 40889, "name": "GSAT0205 (GALILEO 9)", "group": "gnss", "lat": -18.718477479041425, "lon": -146.70352495723503, "alt_km": 23216.620348744476, "timestamp": "2025-12-03T20:47:58.465015+00:00", "meta": {"OBJECT_NAME": "GSAT0205 (GALILEO 9)", "OBJECT_ID": "2015-045A", "EPOCH": "2025-12-02T03:27:57.508704", "MEAN_MOTION": 1.70472886, "ECCENTRICITY": 0.00058353, "INCLINATION": 55.0073, "RA_OF_ASC_NODE": 227.0512, "ARG_OF_PERICENTER": 38.3993, "MEAN_ANOMALY": 321.7247, "EPHEMERIS_TYPE": 0, "CLASSIFICATION_TYPE": "U", "NORAD_CAT_ID": 40889, "ELEMENT_SET_NO": 999, "REV_AT_EPOCH": 6365, "BSTAR": 0, "MEAN_MOTION_DOT": 3.5e-07, "MEAN_MOTION_DDOT": 0}, "tle": {"line1": "1 40889U 15045A   25336.14441561  .00000035  00000+0  00000+0 0  9995", "line2": "2 40889  55.0073 227.0512 0005835  38.3993 321.7247  1.70472886 63655"}}, "geometry": {"type": "Point", "coordinates": [-146.70352495723503, -18.718477479041425]}}, {"type": "Feature", "properties": {"norad_id": 40890, "name": "GSAT0206 (GALILEO 10)", "group": "gnss", "lat": -17.577028912522106, "lon": 59.80464579391191, "alt_km": 23234.827982379968, "timestamp": "2025-12-03T20:47:58.465044+00:00", "meta": {"OBJECT_NAME": "GSAT0206 (GALILEO 10)", "OBJECT_ID": "2015-045B", "EPOCH": "2025-12-01T18:40:58.746144", "MEAN_MOTION": 1.70473031, "ECCENTRICITY": 0.0003438, "INCLINATION": 55.0064, "RA_OF_ASC_NODE": 227.0564, "ARG_OF_PERICENTER": 30.2471, "MEAN_ANOMALY": 329.8532, "EPHEMERIS_TYPE": 0, "CLASSIFICATION_TYPE": "U", "NORAD_CAT_ID": 40890, "ELEMENT_SET_NO": 999, "REV_AT_EPOCH": 6367, "BSTAR": 0, "MEAN_MOTION_DOT": 3.4e-07, "MEAN_MOTION_DDOT": 0}, "tle": {"line1": "1 40890U 15045B   25335.77845771  .00000034  00000+0  00000+0 0  9995", "line2": "2 40890  55.0064 227.0564 0003438  30.2471 329.8532  1.70473031 63674"}}, "geometry": {"type": "Point", "coordinates": [59.80464579391191, -17.577028912522106]}}, {"type": "Feature", "properties": {"norad_id": 40938, "name": "BEIDOU-3S IGSO-2S (C56)", "group": "gnss", "lat": -29.51113516784624, "lon": 109.90586294572137, "alt_km": 35570.50567507663, "timestamp": "2025-12-03T20:47:58.465056+00:00", "meta": {"OBJECT_NAME": "BEIDOU-3S IGSO-2S (C56)", "OBJECT_ID": "2015-053A", "EPOCH": "2025-12-02T18:11:44.349216", "MEAN_MOTION": 1.00271748, "ECCENTRICITY": 0.0061099, "INCLINATION": 49.5284, "RA_OF_ASC_NODE": 261.1253, "ARG_OF_PERICENTER": 188.6619, "MEAN_ANOMALY": 351.1283, "EPHEMERIS_TYPE": 0, "CLASSIFICATION_TYPE": "U", "NORAD_CAT_ID": 40938, "ELEMENT_SET_NO": 999, "REV_AT_EPOCH": 3738, "BSTAR": 0, "MEAN_MOTION_DOT": -1.58e-06, "MEAN_MOTION_DDOT": 0}, "tle": {"line1": "1 40938U 15053A   25336.75815219 -.00000158  00000+0  00000+0 0  9998", "line2": "2 40938  49.5284 261.1253 0061099 188.6619 351.1283  1.00271748 37386"}}, "geometry": {"type": "Point", "coordinates": [109.90586294572137, -29.51113516784624]}}]}